ONEWEB-0451             
1 51643U 22012X   24096.56299120  .00000157  00000+0  37044-3 0  9994
2 51643  87.9229 165.5595 0001946  97.0663 263.0690 13.17651720107967
ONEWEB-0452             
1 51644U 22012Y   24096.56143037  .00000028  00000+0  39416-4 0  9993
2 51644  87.9236 165.5954 0002138  90.8136 269.3241 13.17648849107975
ONEWEB-0455             
1 51645U 22012Z   24096.60014855  .00000304  00000+0  12746-3 0  9997
2 51645  87.5311 138.4243 0015604 216.5837 143.4289 14.22774440111987
ONEWEB-0456             
1 51646U 22012AA  24096.52048297 -.00000265  00000+0 -79744-3 0  9995
2 51646  87.8985 195.7482 0001805 117.7357 242.3954 13.10304821104221
ONEWEB-0457             
1 51647U 22012AB  24096.57373711  .00000626  00000+0  17566-2 0  9995
2 51647  87.8998 195.7536 0002270  98.4485 261.6900 13.10400754104238
ONEWEB-0458             
1 51648U 22012AC  24096.51883584 -.00000270  00000+0 -81069-3 0  9991
2 51648  87.8995 195.7792 0001825 100.6724 259.4609 13.10310791104183
ONEWEB-0461             
1 51649U 22012AD  24096.58357165  .00000919  00000+0  23335-2 0  9999
2 51649  87.9233 165.5625 0002163 101.9703 258.1671 13.17643289108195
ONEWEB-0463             
1 51650U 22012AE  24096.56617211  .00000078  00000+0  16668-3 0  9998
2 51650  87.9237 165.6096 0002136 100.0582 260.0791 13.17648427107978
ONEWEB-0464             
1 51651U 22012AF  24096.51553476 -.00000132  00000+0 -41332-3 0  9995
2 51651  87.8996 195.7686 0001593 113.8664 246.2630 13.10324301104204
ONEWEB-0468             
1 51652U 22012AG  24096.52213448 -.00000371  00000+0 -11012-2 0  9995
2 51652  87.8995 195.7604 0001827 107.0028 253.1299 13.10298888104188
ONEWEB-0473             
1 51653U 22012AH  24096.50729169  .00000361  00000+0  99711-3 0  9996
2 51653  87.8997 195.7667 0001821 104.4849 255.6480 13.10356002104188
ONEWEB-0474             
1 51654U 22012AJ  24096.57541471  .00000610  00000+0  17111-2 0  9992
2 51654  87.8989 195.7567 0001634 103.7918 256.3391 13.10393944104185
ONEWEB-0475             
1 51655U 22012AK  24096.57723519  .00000048  00000+0  89292-4 0  9994
2 51655  87.9236 165.5864 0001642  94.4304 265.7015 13.17647378107990
ONEWEB-0490             
1 54113U 22138A   24096.53800911  .00000059  00000+0  11435-3 0  9998
2 54113  87.9094 104.7314 0001785  90.9252 269.2085 13.19724491 70966
ONEWEB-0492             
1 54114U 22138B   24096.56328360  .00000064  00000+0  12805-3 0  9993
2 54114  87.9098 104.7254 0001610  93.9279 266.2037 13.19724641 70975
ONEWEB-0495             
1 54115U 22138C   24096.54114987  .00000024  00000+0  26500-4 0  9994
2 54115  87.9099 104.7414 0001137  77.0266 283.0993 13.19722674 70958
ONEWEB-0497             
1 54116U 22138D   24096.55380582  .00000026  00000+0  33409-4 0  9990
2 54116  87.9094 104.7302 0001773  90.7868 269.3468 13.19724272 70945
ONEWEB-0499             
1 54117U 22138E   24096.53644851  .00000082  00000+0  17246-3 0  9993
2 54117  87.9099 104.7316 0002023  74.3912 285.7443 13.19725773 70956
ONEWEB-0500             
1 54118U 22138F   24096.53958547  .00000059  00000+0  11512-3 0  9998
2 54118  87.9096 104.7292 0001841  92.9959 267.1385 13.19723684 70960
ONEWEB-0501             
1 54119U 22138G   24096.56960824  .00000104  00000+0  22824-3 0  9992
2 54119  87.9094 104.7226 0001382  80.8071 279.3218 13.19724640 70948
ONEWEB-0502             
1 54120U 22138H   24096.55539657  .00000042  00000+0  73228-4 0  9995
2 54120  87.9092 104.7157 0001657  82.2882 277.8439 13.19724523 70962
ONEWEB-0503             
1 54121U 22138J   24096.54433720  .00000042  00000+0  71790-4 0  9991
2 54121  87.9092 104.7251 0002281  83.7654 276.3738 13.19726694 70951
ONEWEB-0504             
1 54122U 22138K   24096.53168971  .00000060  00000+0  11866-3 0  9991
2 54122  87.9094 104.7317 0001836  78.1684 281.9655 13.19723410 71834
ONEWEB-0505             
1 54123U 22138L   24096.52854141  .00000070  00000+0  14136-3 0  9996
2 54123  87.9092 104.7282 0001344  71.5498 288.5781 13.19724175 70941
ONEWEB-0506             
1 54124U 22138M   24096.57908736  .00000107  00000+0  23566-3 0  9990
2 54124  87.9093 104.7149 0001696  85.9285 274.2042 13.19724375 70942
ONEWEB-0507             
1 54125U 22138N   24096.52380246  .00000095  00000+0  20385-3 0  9998
2 54125  87.9102 104.7411 0001591  90.0709 270.0606 13.19724039 70989
ONEWEB-0508             
1 54126U 22138P   24096.52065226  .00000176  00000+0  40686-3 0  9993
2 54126  87.9098 104.7373 0001461  88.1342 271.9958 13.19724996 70968
ONEWEB-0509             
1 54127U 22138Q   24096.57119695  .00000059  00000+0  11518-3 0  9991
2 54127  87.9091 104.7189 0001772  87.7589 272.3747 13.19726056 70948
ONEWEB-0510             
1 54128U 22138R   24096.48829092  .00000040  00000+0  65520-4 0  9994
2 54128  87.9155  74.1554 0002005  99.6905 260.4454 13.20775908 73320
ONEWEB-0511             
1 54129U 22138S   24096.56802611  .00000097  00000+0  20998-3 0  9993
2 54129  87.9093 104.7221 0002074  77.9940 282.1426 13.19723904 70972
ONEWEB-0512             
1 54130U 22138T   24096.56012611  .00000000  00000+0 -31164-4 0  9991
2 54130  87.9103 104.7338 0001518  78.6900 281.4403 13.19724391 70946
ONEWEB-0513             
1 54131U 22138U   24096.53091818  .00000028  00000+0  37400-4 0  9993
2 54131  87.9098 104.7359 0001700  70.6316 289.5001 13.19724337 70829
ONEWEB-0514             
1 54132U 22138V   24096.57591457  .00000094  00000+0  20165-3 0  9994
2 54132  87.9094 104.7254 0001966  88.8534 271.2824 13.19723937 70968
ONEWEB-0515             
1 54133U 22138W   24096.47566774  .00000020  00000+0  17352-4 0  9992
2 54133  87.9154  74.1385 0002478 111.2524 248.8874 13.20769767 73343
ONEWEB-0516             
1 54134U 22138X   24096.55064821  .00000056  00000+0  10855-3 0  9997
2 54134  87.9102 104.7367 0001797  91.1599 268.9739 13.19724351 70964
ONEWEB-0517             
1 54135U 22138Y   24096.53012702  .00000091  00000+0  19426-3 0  9999
2 54135  87.9094 104.7309 0002282  79.4531 280.6858 13.19728378 70962
ONEWEB-0518             
1 54136U 22138Z   24096.54907973  .00000046  00000+0  82127-4 0  9993
2 54136  87.9102 104.7358 0001962  85.3557 274.7800 13.19725163 70965
ONEWEB-0519             
1 54137U 22138AA  24096.57435571  .00000141  00000+0  31994-3 0  9998
2 54137  87.9092 104.7183 0001763  76.2202 283.9127 13.19726531 70970
ONEWEB-0520             
1 54138U 22138AB  24096.53327495  .00000048  00000+0  88685-4 0  9996
2 54138  87.9093 104.7292 0001415  82.9211 277.2082 13.19724220 70958
ONEWEB-0521             
1 54139U 22138AC  24096.56644464  .00000082  00000+0  17317-3 0  9999
2 54139  87.9092 104.7165 0002167  85.9297 274.2083 13.19724271 70908
ONEWEB-0522             
1 54140U 22138AD  24096.54591052  .00000094  00000+0  20231-3 0  9995
2 54140  87.9092 104.7226 0001806  91.9913 268.1426 13.19724383 70940
ONEWEB-0523             
1 54141U 22138AE  24096.46303806 -.00000048  00000+0 -15026-3 0  9992
2 54141  87.9155  74.1686 0002773  96.6406 263.5042 13.20769301 73345
ONEWEB-0524             
1 54142U 22138AF  24096.45199667  .00000055  00000+0  10230-3 0  9998
2 54142  87.9155  74.1747 0002154 118.5904 241.5446 13.20770313 73343
ONEWEB-0525             
1 54143U 22138AG  24096.56486331  .00000048  00000+0  87619-4 0  9996
2 54143  87.9093 104.7256 0001630  84.8809 275.2510 13.19724213 70964
ONEWEB-0526             
1 54144U 22138AH  24096.52221444  .00000087  00000+0  18381-3 0  9997
2 54144  87.9092 104.7306 0001808  92.0126 268.1213 13.19723384 70936
ONEWEB-0529             
1 54145U 22138AJ  24096.52537816  .00000074  00000+0  15133-3 0  9999
2 54145  87.9100 104.7396 0001548  87.3822 272.7488 13.19724208 70950
ONEWEB-0531             
1 54146U 22138AK  24096.43779721  .00000062  00000+0  11964-3 0  9998
2 54146  87.9156  74.1676 0002759 106.5806 253.5630 13.20770467 73346
ONEWEB-0535             
1 54147U 22138AL  24096.55854598  .00000054  00000+0  10325-3 0  9999
2 54147  87.9091 104.7219 0002244  92.7591 267.3799 13.19724061 70976
ONEWEB-0536             
1 54148U 22138AM  24096.50092922  .00000148  00000+0  33285-3 0  9994
2 54148  87.9154  74.2048 0002979  94.3703 265.7771 13.20770384 73343
GSLV R/B                
1 54149U 22138AN  24096.33578574  .00002553  00000+0  25899-3 0  9992
2 54149  87.3837  41.3451 0024278 170.4624 189.7070 14.90255700 78938
ONEWEB-0527             
1 54642U 22166A   24096.56234952  .00000000  00000+0 -31891-4 0  9991
2 54642  87.9291  43.7407 0001884  84.5953 275.5396 13.21823620 65500
ONEWEB-0528             
1 54643U 22166B   24096.56866574  .00000004  00000+0 -22176-4 0  9993
2 54643  87.9295  43.7237 0001758  80.2949 279.8383 13.21826391 65516
ONEWEB-0539             
1 54644U 22166C   24096.60492672 -.00000054  00000+0 -16114-3 0  9993
2 54644  87.9297  43.7180 0002041  74.4130 285.7229 13.21824854 65516
ONEWEB-0540             
1 54645U 22166D   24096.59940549 -.00000037  00000+0 -12219-3 0  9996
2 54645  87.9291  43.7416 0001973  71.4326 288.7023 13.21823510 65502
ONEWEB-0542             
1 54646U 22166E   24096.61438467  .00000007  00000+0 -15670-4 0  9992
2 54646  87.9296  43.7160 0002352  72.7754 287.3637 13.21824840 65519
ONEWEB-0545             
1 54647U 22166F   24096.58127090  .00000016  00000+0  69075-5 0  9994
2 54647  87.9287  43.7507 0002129  65.9271 294.2085 13.21823786 65472
ONEWEB-0580             
1 54648U 22166G   24096.55446154 -.00000006  00000+0 -46951-4 0  9995
2 54648  87.9292  43.7193 0002411  71.4655 288.6741 13.21824145 65513
ONEWEB-0582             
1 54649U 22166H   24096.59705278 -.00000009  00000+0 -54036-4 0  9991
2 54649  87.9290  43.7505 0001817  70.8082 289.3248 13.21826210 65497
ONEWEB-0583             
1 54650U 22166J   24096.60808026 -.00000033  00000+0 -11048-3 0  9992
2 54650  87.9288  43.7497 0001676  89.6235 270.5091 13.21824890 65509
